HELIOS 2A               
1 28492U 04049A   24351.16720845  .00004479  00000+0  36891-3 0  9993
2 28492  98.3236 356.8145 0009332 334.5861  25.4900 14.99613866 71558
SPIRALE A               
1 33751U 09008C   24350.73409839  .00002684  00000+0  19006-2 0  9990
2 33751   2.0817  92.8785 5566117 205.9592 109.5840  4.60624755236761
SPIRALE B               
1 33752U 09008D   24345.44105084  .00012578  00000+0  22390-2 0  9991
2 33752   2.0958 336.7366 6747195  71.7208 347.1449  2.98610363151360
SAPPHIRE                
1 39088U 13009C   24350.80463554  .00000391  00000+0  15245-3 0  9992
2 39088  98.4076 172.8702 0012407  82.7773 277.4823 14.34924208617924
